C/2019 M3 (ATLAS),e,99.6601,155.0599,87.9357,5082,0.0000027,0.99952294,0.0000,12/31.4821/2018,2000,g 12.2,4.0
# From MPEC 2023-JA2
C/2019 M4 (TESS),h,09/09.3719/2019,65.6934,52.6411,260.3374,1.000197,9.191028,2000,5.0,4.0
# From MPEC 2023-C45
C/2019 N1 (ATLAS),e,82.5417,13.5073,193.3417,957.7942,0.0000333,0.99822198,0.0000,11/30.4815/2020,2000,g  7.5,4.0
# From MPEC 2023-CD8
A/2019 N2,e,89.3190,276.2267,347.0577,1110,0.0000267,0.99825274,0.0000,08/22.4082/2019,2000,g 12.5,2.0
# From MPEC 2022-A21
C/2019 NJ3 (Lemmon),h,10/22.1654/2020,99.3300,142.4927,246.8693,1.001369,4.362916,2000,9.0,4.0
# From MPC185656
C/2019 O2 (PANSTARRS),e,93.2976,48.2635,129.5723,58.77565,0.0021873,0.83529325,1.8919,08/18.0/2025,2000,g  5.0,4.0
# From MPC182878
C/2019 O3 (Palomar),h,03/08.2626/2021,89.7945,300.4786,60.0964,1.002551,8.820654,2000,3.5,4.0
# From MPEC 2021-P47
A/2019 O4,e,114.9973,354.9256,61.8186,33.22198,0.0051471,0.89037645,10.3708,08/18.0/2025,2000,g 15.5,2.0
# From MPEC 2024-EF7
C/2019 Q1 (Lemmon),h,07/22.2745/2020,155.7197,42.4684,56.2540,1.002447,5.002299,2000,8.5,4.0
# From MPC117072
A/2019 Q2,e,158.9665,188.1337,176.5136,58.81665,0.0021850,0.97857106,0.0000,07/23.7886/2019,2000,g 18.0,2.0
# From MPC117072
P/2019 S2 (PANSTARRS),e,10.4636,93.1797,216.9166,4.747579,0.0952787,0.20467037,226.3022,08/18.0/2025,2000,g 13.5,4.0
# From MPEC 2022-CN4
P/2019 S3 (PANSTARRS),e,8.6942,150.1402,213.0990,3.414216,0.1562312,0.47072051,340.7563,08/18.0/2025,2000,g 18.3,4.0
# From MPEC 2021-S45
C/2019 S4 (Lemmon),e,92.0930,63.1552,71.3698,249.6343,0.0002499,0.98622472,0.0000,04/09.4899/2020,2000,g 11.0,4.0
# From MPEC 2023-N01
A/2019 T1,e,120.8162,6.9278,90.9749,38.74155,0.0040873,0.88967124,6.8507,08/18.0/2025,2000,g 13.0,2.0
# From MPEC 2023-R20
C/2019 T2 (Lemmon),e,111.3649,155.6540,239.3826,3282,0.0000052,0.99919470,0.0000,04/22.4816/2021,2000,g  9.0,4.0
# From MPEC 2023-UR6
C/2019 T3 (ATLAS),e,121.8778,139.5451,112.4910,4823,0.0000029,0.99876564,0.0000,03/04.7817/2021,2000,g  6.8,4.0
# From MPC182878
C/2019 T4 (ATLAS),e,53.6245,199.8975,351.1075,880.1362,0.0000377,0.99518571,0.0000,06/08.6696/2022,2000,g  5.0,4.0
# From MPEC 2021-P47
P/2019 T5 (ATLAS),e,33.4916,247.6130,189.6281,8.008266,0.0434907,0.80976442,95.9612,08/18.0/2025,2000,g 15.0,4.0
# From MPEC 2021-P47
P/2019 T6 (PANSTARRS),e,18.6982,71.2485,329.0615,5.443108,0.0776128,0.62239614,163.6966,08/18.0/2025,2000,g 15.5,4.0
# From MPC118096
P/2019 U4 (PANSTARRS),e,11.6954,199.9999,181.0872,3.518639,0.1493282,0.47572409,322.1402,08/18.0/2025,2000,g 19.0,4.0
# From MPC185656
C/2019 U5 (PANSTARRS),h,03/29.4079/2023,113.5128,2.6099,181.4472,1.000110,3.624301,2000,4.5,4.0
# From MPEC 2022-H04
C/2019 U6 (Lemmon),e,60.9900,235.7434,329.4248,302.6255,0.0001872,0.99700610,0.0000,06/18.3330/2020,2000,g 10.0,4.0
# From MPEC 2022-N37
C/2019 V1 (Borisov),e,61.9484,83.1481,51.1957,2753,0.0000068,0.99887675,0.0000,07/17.6618/2020,2000,g 11.0,4.0
# From MPEC 2022-L66
P/2019 V2 (Groeller),e,11.8070,189.1337,335.6336,7.494713,0.0480365,0.33193408,84.8161,08/18.0/2025,2000,g 10.0,4.0
# From MPEC 2023-A50
P/2019 W1 (PANSTARRS),e,23.4659,35.3594,18.8995,4.548453,0.1016035,0.26718218,232.6510,08/18.0/2025,2000,g 12.9,4.0
# From MPEC 2021-P47
P/2019 X1 (Pruyne),e,10.2451,43.6762,37.0022,6.179757,0.0641574,0.30380646,142.1838,08/18.0/2025,2000,g 10.4,4.0
# From MPEC 2020-C98
P/2019 X2 (Pan-STARRS),e,15.8946,250.8297,213.5230,3.633903,0.1422801,0.50049309,295.3638,08/18.0/2025,2000,g 18.0,4.0
# From MPC119999
C/2019 Y1 (ATLAS),e,73.2674,31.4692,57.9170,88.25665,0.0011887,0.99063766,0.0000,03/17.2637/2020,2000,g 13.7,4.0
# From MPEC 2024-A43
C/2019 Y4 (ATLAS),e,44.9210,120.7972,177.4063,328.3250,0.0001657,0.99921631,0.0000,05/29.5487/2020,2000,g 11.8,6.0
# From MPEC 2020-L06
C/2019 Y4-A (ATLAS),h,05/29.6048/2020,45.3552,121.1653,177.2382,1.001359,0.255458,2000,11.6,6.0
# From MPEC 2025-CE3
C/2019 Y4-B (ATLAS),e,45.0022,120.8605,177.3653,1321,0.0000205,0.99980548,0.0000,05/29.5579/2020,2000,g 12.1,6.0
# From MPEC 2020-L06
C/2019 Y4-C (ATLAS),h,05/29.5591/2020,45.1391,120.8926,177.2710,1.002087,0.256529,2000,12.7,6.0
# From MPEC 2020-L06
C/2019 Y4-D (ATLAS),e,45.1925,121.2536,177.4144,67.21486,0.0017886,0.99619347,0.0000,05/29.6394/2020,2000,g 12.5,6.0
# From MPEC 2023-A50
C/2019 Y5 (PANSTARRS),e,82.7763,51.7696,303.6706,684.9360,0.0000550,0.99279532,0.0000,08/16.4756/2019,2000,g 11.0,4.0
# From MPEC 2023-A50
A/2020 A1,e,149.0315,119.0567,302.4007,25.46034,0.0076720,0.93431914,16.0186,08/18.0/2025,2000,g 18.0,2.0
# From MPEC 2022-YN2
C/2020 A2 (Iwamoto),e,120.5007,286.1845,68.0138,949.6305,0.0000337,0.99897277,0.0000,01/06.9899/2020,2000,g 13.5,4.0
# From MPEC 2023-A50
C/2020 A3 (ATLAS),e,146.6189,120.7976,268.2300,4554,0.0000032,0.99873667,0.0000,06/26.6946/2019,2000,g  8.0,4.0
# From MPEC 2022-P91
P/2020 A4 (PANSTARRS-Lemmon),e,25.0038,312.2758,144.9148,8.203472,0.0419476,0.65447133,87.8155,08/18.0/2025,2000,g 15.0,4.0
# From MPEC 2020-N08
A/2020 B1,e,18.5420,309.7944,154.8914,52.12785,0.0026188,0.96663237,5.3954,08/18.0/2025,2000,g 21.0,2.0
# From MPEC 2020-HN5
C/2020 B2 (Lemmon),e,55.7557,354.1682,143.6336,67.92411,0.0017606,0.95942624,3.5735,08/18.0/2025,2000,g 10.0,4.0
# From MPEC 2022-N37
C/2020 B3 (Rankin),e,20.7068,185.7381,324.9375,1064,0.0000284,0.99687248,0.0000,10/20.8870/2019,2000,g 13.0,4.0
# From MPEC 2023-KD6
P/2020 B4 (Sheppard),e,11.6027,185.9459,342.0593,7.973780,0.0437731,0.19295218,59.8608,08/18.0/2025,2000,g 10.5,4.0
# From MPEC 2025-OF9
C/2020 F2 (ATLAS),h,07/12.3904/2022,163.5897,250.3002,48.2331,1.002402,8.813465,2000,4.5,4.0
# From MPEC 2021-O56
C/2020 F3 (NEOWISE),e,129.1068,61.0731,37.3419,404.0428,0.0001214,0.99927407,0.0000,07/05.0169/2020,2000,g  7.5,5.2
# From MPEC 2024-UQ8
C/2020 F5 (MASTER),e,52.2345,350.5462,310.6097,163.8028,0.0004701,0.97359018,0.0000,03/16.1101/2021,2000,g  6.5,3.2
# From MPEC 2020-L06
C/2020 F6 (PANSTARRS),e,174.5844,207.8346,344.3222,339.3111,0.0001577,0.98969091,0.0000,04/10.2095/2020,2000,g 14.5,2.8
# From MPEC 2024-A43
C/2020 F7 (Lemmon),e,93.9851,321.8198,227.9873,573.7032,0.0000717,0.99070044,0.0000,11/13.9073/2021,2000,g  7.0,4.0
# From MPEC 2023-J29
C/2020 F8 (SWAN),h,05/25.7236/2020,110.5571,259.8035,68.1167,1.000060,0.432994,2000,10.0,4.0
# From MPEC 2020-L06
P/2020 G1 (Pimentel),e,18.5065,240.0966,207.6519,3.606377,0.1439121,0.86082165,284.5496,08/18.0/2025,2000,g 17.0,4.0
# From MPEC 2022-YB4
C/2020 H2 (Pruyne),e,124.7750,277.6715,26.5814,176.4137,0.0004206,0.99530410,0.0000,04/26.7870/2020,2000,g 14.0,3.2
# From MPEC 2020-HM1
C/2020 H3 (Wierzchos),p,06/05.7162/2020,62.5292,30.4456,2.300288,270.6227,2000,13.5,4.0
# From MPEC 2020-L06
C/2020 H4 (Leonard),e,84.4948,307.4446,117.5837,47.85296,0.0029774,0.98061044,0.0000,08/29.1823/2020,2000,g 15.0,3.2
# From MPC184409
C/2020 H5 (Robinson),e,70.2262,210.6129,326.2636,6137,0.0000021,0.99847895,0.0000,12/09.9598/2020,2000,g  5.0,4.0
# From MPEC 2024-JU4
C/2020 H6 (ATLAS),e,79.9905,213.6888,20.1876,1927,0.0000116,0.99756329,0.0000,09/29.5209/2021,2000,g  8.0,3.2
# From MPEC 2020-KB7
C/2020 H7 (Lemmon),e,135.9235,323.5194,82.6780,1405,0.0000187,0.99685380,0.0000,06/02.9510/2020,2000,g 11.0,4.0
# From MPEC 2021-N06
C/2020 H8 (PANSTARRS),e,99.7021,68.4373,128.8109,589.1462,0.0000689,0.99208596,0.0000,06/04.8192/2020,2000,g 10.5,4.0
# From MPEC 2022-ED3
A/2020 H9,e,137.8733,213.1123,312.6062,339.7085,0.0001574,0.99245995,0.0000,12/21.7538/2019,2000,g 18.0,2.0
# From MPEC 2023-HN7
C/2020 H11 (PANSTARRS-Lemmon),e,151.3721,303.0575,91.3611,18081,0.0000004,0.99957852,0.0000,09/12.3744/2020,2000,g  8.5,4.0
# From MPEC 2023-KD6
C/2020 J1 (SONEAR),e,142.3075,226.5827,341.5692,8096,0.0000014,0.99958687,0.0000,04/17.9732/2021,2000,g  8.5,3.2
# From MPC184409
C/2020 K1 (PANSTARRS),e,89.6706,94.3671,213.9693,2267,0.0000091,0.99864372,0.0000,05/08.6995/2023,2000,g  5.5,4.0
# From MPEC 2021-N06
C/2020 K2 (PANSTARRS),h,08/04.2550/2020,90.9873,288.4351,67.3065,1.000799,8.880278,2000,10.8,4.0
# From MPEC 2020-KF9
C/2020 K3 (Leonard),p,06/01.0032/2020,129.0152,64.4924,1.583069,28.3546,2000,14.5,4.0
# From MPEC 2020-L06
C/2020 K4 (PANSTARRS),e,125.5849,264.2750,308.7757,23.91983,0.0084249,0.92711838,16.7821,08/18.0/2025,2000,g 16.5,4.0
# From MPEC 2021-R75
C/2020 K5 (PANSTARRS),h,06/04.1454/2021,67.0677,86.1412,249.6432,1.000774,1.540980,2000,11.0,4.0
# From MPEC 2023-N01
C/2020 K6 (Rankin),h,09/14.6284/2021,103.6292,291.6009,44.2729,1.002001,5.865892,2000,8.0,4.0
# From MPEC 2023-A50
C/2020 K7 (PANSTARRS),e,32.0443,286.1343,358.0686,94.45969,0.0010736,0.93237741,2.2801,08/18.0/2025,2000,g  8.0,4.0
# From MPEC 2021-P47
C/2020 K8 (Catalina-ATLAS),h,09/15.7516/2020,31.3752,181.2810,260.1820,1.000326,0.471622,2000,15.0,3.2
# From MPEC 2021-BE3
P/2020 K9 (Lemmon-PANSTARRS),e,23.1893,166.3100,197.0890,4.207535,0.1141990,0.32007411,188.3115,08/18.0/2025,2000,g 12.5,4.0
# From MPEC 2023-C45
P/2020 M1 (PANSTARRS),e,8.5347,142.6170,72.4827,5.311506,0.0805151,0.47359921,166.2465,08/18.0/2025,2000,g 14.5,4.0
# From MPEC 2022-H30
C/2020 M3 (ATLAS),e,23.4698,71.1788,328.6749,27.31124,0.0069054,0.95329054,12.1349,08/18.0/2025,2000,g 14.5,4.0
# From MPEC 2023-N01
A/2020 M4,e,160.1010,348.6130,104.4703,15978,0.0000005,0.99962821,0.0000,11/22.6612/2020,2000,g 14.5,2.0
# From MPEC 2024-NE4
P/2020 MK4 (PANSTARRS),e,6.7812,0.6619,93.7035,6.224711,0.0634637,0.01523708,321.2495,08/18.0/2025,2000,g  8.0,4.0
# From MPEC 2023-FK0
C/2020 M5 (ATLAS),h,08/19.7327/2021,93.1709,352.0132,126.2441,1.000104,2.999878,2000,9.0,4.0
# From MPEC 2022-GA9
C/2020 N1 (PANSTARRS),h,03/13.1942/2021,29.7678,279.8547,186.8413,1.000887,1.317721,2000,12.5,4.0
# From MPEC 2021-P47
C/2020 N2 (ATLAS),e,161.0388,257.1785,331.1921,101.1771,0.0009685,0.98237448,0.0000,08/24.3104/2020,2000,g 16.0,3.2
# From MPEC 2024-JU4
C/2020 O2 (Amaral),e,71.7624,256.7908,10.1653,9763,0.0000010,0.99950260,0.0000,08/27.1986/2021,2000,g  8.0,3.2
# From MPEC 2023-C45
